{
  "norad_id": 68988,
  "name": "CAS500-2 RIDESHARE OBJECT J",
  "history": [
    {
      "epoch": "2026-05-09T17:02:16.104768Z",
      "apogee_km": 599.8339507547744,
      "perigee_km": 592.7130776197882,
      "latitude_deg": -1.5201149168214741e-05,
      "longitude_deg": -95.22118541328236,
      "height_km": 598.513062365628,
      "semi_major_axis_km": 6974.410514187281,
      "eccentricity": 0.0005105,
      "inclination_deg": 97.7379,
      "raan_deg": 27.8695,
      "arg_perigee_deg": 283.0931,
      "mean_anomaly_deg": 76.9717,
      "mean_motion_rev_day": 14.9053268
    }
  ]
}