CAS500-2 RIDESHARE OBJE*
1 68988U 26100J   26129.70990863  .00000927  00000+0  10053-3 0  9999
2 68988  97.7379  27.8695 0005105 283.0931  76.9717 14.90532680   967
